IRIDIUM 159             
1 43578U 18061K   26008.36655621  .00000265  00000+0  87673-4 0  9990
2 43578  86.3988 123.5454 0001929  97.0270 263.1146 14.34218335390471
IRIDIUM 180             
1 43922U 19002A   26009.20327491  .00000061  00000+0  14846-4 0  9990
2 43922  86.3939  60.0559 0002106  96.7521 263.3915 14.34217265366205
IRIDIUM 176             
1 43923U 19002B   26009.18253184  .00000786  00000+0  12081-3 0  9997
2 43923  86.6064  60.0315 0002449  97.5074 262.6421 14.72257670375851
IRIDIUM 168             
1 43924U 19002C   26009.19692480  .00000172  00000+0  54514-4 0  9992
2 43924  86.3944  60.1317 0002178  94.9762 265.1682 14.34215918366183
IRIDIUM 173             
1 43925U 19002D   26009.18424370  .00000242  00000+0  79387-4 0  9996
2 43925  86.3940  60.0323 0002316  97.9215 262.2244 14.34219932366166
IRIDIUM 169             
1 43926U 19002E   26009.10864121 -.00000460  00000+0 -15701-3 0  9994
2 43926  86.4220  91.7217 0002987 102.0229 258.1304 14.38605822367353
IRIDIUM 172             
1 43927U 19002F   26009.17790454  .00000017  00000+0 -11150-5 0  9992
2 43927  86.3939  60.0422 0001919  98.1493 261.9920 14.34217458366174
IRIDIUM 175             
1 43928U 19002G   26008.49819173  .00001257  00000+0  19535-3 0  9996
2 43928  86.1503   1.2116 0002807  66.1285 294.0225 14.72240257375741
